start=new Date('2022-04-12T00:00:00.000Z').valueOf();
sats=[{"RA_OF_ASC_NODE":"72.4890","EPHEMERIS_TYPE":"0","OBJECT_TYPE":"PAYLOAD","BSTAR":"0.00010077000000","TIME_SYSTEM":"UTC","ELEMENT_SET_NO":"999","MEAN_MOTION_DDOT":"0.0000000000000","NORAD_CAT_ID":"48598","SEMIMAJOR_AXIS":"6925.358","PERIAPSIS":"546.161","INCLINATION":"53.0540","MEAN_ANOMALY":"298.3118","COUNTRY_CODE":"US","DECAY_DATE":null,"FILE":"3397723","CENTER_NAME":"EARTH","GP_ID":"201017225","REF_FRAME":"TEME","SITE":"AFETR","TLE_LINE1":"1 48598U 21041AX  22101.61587597  .00001220  00000-0  10077-3 0  9999","CLASSIFICATION_TYPE":"U","MEAN_MOTION_DOT":"0.00001220","RCS_SIZE":"LARGE","OBJECT_NAME":"STARLINK-2256","REV_AT_EPOCH":"5027","LAUNCH_DATE":"2021-05-15","TLE_LINE2":"2 48598  53.0540  72.4890 0001534  61.8026 298.3118 15.06396846 50273","ECCENTRICITY":"0.00015340","APOAPSIS":"548.286","MEAN_MOTION":"15.06396846","PERIOD":"95.592","MEAN_ELEMENT_THEORY":"SGP4","ARG_OF_PERICENTER":"61.8026","OBJECT_ID":"2021-041AX","EPOCH":"2022-04-11T14:46:51.683808"},{"EPOCH":"2022-04-11T13:49:08.958432","ARG_OF_PERICENTER":"59.0126","OBJECT_ID":"2021-041AY","MEAN_ELEMENT_THEORY":"SGP4","PERIOD":"95.593","MEAN_MOTION":"15.06390109","APOAPSIS":"548.196","ECCENTRICITY":"0.00013750","TLE_LINE2":"2 48599  53.0572  47.6635 0001375  59.0126 301.0998 15.06390109 51436","LAUNCH_DATE":"2021-05-15","REV_AT_EPOCH":"5143","OBJECT_NAME":"STARLINK-2274","RCS_SIZE":"LARGE","MEAN_MOTION_DOT":"-0.00000242","CLASSIFICATION_TYPE":"U","TLE_LINE1":"1 48599U 21041AY  22101.57579813 -.00000242  00000-0  26171-5 0  9995","SITE":"AFETR","REF_FRAME":"TEME","GP_ID":"200993896","CENTER_NAME":"EARTH","FILE":"3397636","DECAY_DATE":null,"COUNTRY_CODE":"US","MEAN_ANOMALY":"301.0998","INCLINATION":"53.0572","SEMIMAJOR_AXIS":"6925.379","PERIAPSIS":"546.292","NORAD_CAT_ID":"48599","MEAN_MOTION_DDOT":"0.0000000000000","ELEMENT_SET_NO":"999","TIME_SYSTEM":"UTC","BSTAR":"0.00000261710000","OBJECT_TYPE":"PAYLOAD","EPHEMERIS_TYPE":"0","RA_OF_ASC_NODE":"47.6635"},{"MEAN_MOTION_DOT":"0.00001424","CLASSIFICATION_TYPE":"U","REV_AT_EPOCH":"5126","OBJECT_NAME":"STARLINK-2275","RCS_SIZE":"LARGE","LAUNCH_DATE":"2021-05-15","APOAPSIS":"548.099","ECCENTRICITY":"0.00012570","TLE_LINE2":"2 48600  53.0558  61.3003 0001257  82.2377 277.8755 15.06395261 51266","ARG_OF_PERICENTER":"82.2377","OBJECT_ID":"2021-041AZ","MEAN_ELEMENT_THEORY":"SGP4","PERIOD":"95.592","MEAN_MOTION":"15.06395261","EPOCH":"2022-04-11T21:05:01.608576","RA_OF_ASC_NODE":"61.3003","BSTAR":"0.00011447000000","OBJECT_TYPE":"PAYLOAD","EPHEMERIS_TYPE":"0","MEAN_MOTION_DDOT":"0.0000000000000","NORAD_CAT_ID":"48600","ELEMENT_SET_NO":"999","TIME_SYSTEM":"UTC","PERIAPSIS":"546.358","SEMIMAJOR_AXIS":"6925.363","FILE":"3397723","DECAY_DATE":null,"COUNTRY_CODE":"US","MEAN_ANOMALY":"277.8755","INCLINATION":"53.0558","GP_ID":"201016223","CENTER_NAME":"EARTH","TLE_LINE1":"1 48600U 21041AZ  22101.87849084  .00001424  00000-0  11447-3 0  9991","SITE":"AFETR","REF_FRAME":"TEME"},{"CLASSIFICATION_TYPE":"U","MEAN_MOTION_DOT":"0.00005000","RCS_SIZE":"LARGE","OBJECT_NAME":"STARLINK-2713","REV_AT_EPOCH":"5142","LAUNCH_DATE":"2021-05-15","TLE_LINE2":"2 48602  53.0561  47.8165 0002066  66.8379 293.2828 15.06401011 51421","ECCENTRICITY":"0.00020660","APOAPSIS":"548.641","MEAN_MOTION":"15.06401011","MEAN_ELEMENT_THEORY":"SGP4","PERIOD":"95.592","ARG_OF_PERICENTER":"66.8379","OBJECT_ID":"2021-041BB","EPOCH":"2022-04-11T13:01:23.333088","RA_OF_ASC_NODE":"47.8165","EPHEMERIS_TYPE":"0","OBJECT_TYPE":"PAYLOAD","BSTAR":"0.00035432000000","ELEMENT_SET_NO":"999","TIME_SYSTEM":"UTC","MEAN_MOTION_DDOT":"0.0000000000000","NORAD_CAT_ID":"48602","SEMIMAJOR_AXIS":"6925.345","PERIAPSIS":"545.780","INCLINATION":"53.0561","MEAN_ANOMALY":"293.2828","COUNTRY_CODE":"US","DECAY_DATE":null,"FILE":"3397637","GP_ID":"200993408","CENTER_NAME":"EARTH","REF_FRAME":"TEME","SITE":"AFETR","TLE_LINE1":"1 48602U 21041BB  22101.54263117  .00005000  00000-0  35432-3 0  9998"},{"TLE_LINE2":"2 48603  53.0558  44.3963 0001535  59.3261 300.7879 15.06389027 51447","APOAPSIS":"548.310","ECCENTRICITY":"0.00015350","MEAN_MOTION":"15.06389027","ARG_OF_PERICENTER":"59.3261","OBJECT_ID":"2021-041BC","PERIOD":"95.593","MEAN_ELEMENT_THEORY":"SGP4","EPOCH":"2022-04-11T04:33:47.011680","MEAN_MOTION_DOT":"-0.00000512","CLASSIFICATION_TYPE":"U","OBJECT_NAME":"STARLINK-2714","RCS_SIZE":"LARGE","REV_AT_EPOCH":"5144","LAUNCH_DATE":"2021-05-15","SEMIMAJOR_AXIS":"6925.382","PERIAPSIS":"546.184","COUNTRY_CODE":"US","INCLINATION":"53.0558","MEAN_ANOMALY":"300.7879","FILE":"3397378","DECAY_DATE":null,"GP_ID":"200985640","CENTER_NAME":"EARTH","SITE":"AFETR","REF_FRAME":"TEME","TLE_LINE1":"1 48603U 21041BC  22101.19012745 -.00000512  00000-0 -15449-4 0  9991","RA_OF_ASC_NODE":"44.3963","OBJECT_TYPE":"PAYLOAD","EPHEMERIS_TYPE":"0","BSTAR":"-0.00001544900000","MEAN_MOTION_DDOT":"0.0000000000000","NORAD_CAT_ID":"48603","TIME_SYSTEM":"UTC","ELEMENT_SET_NO":"999"},{"RA_OF_ASC_NODE":"73.8064","NORAD_CAT_ID":"48604","MEAN_MOTION_DDOT":"0.0000000000000","ELEMENT_SET_NO":"999","TIME_SYSTEM":"UTC","BSTAR":"0.00001112400000","OBJECT_TYPE":"PAYLOAD","EPHEMERIS_TYPE":"0","FILE":"3397378","DECAY_DATE":null,"COUNTRY_CODE":"US","MEAN_ANOMALY":"298.9606","INCLINATION":"53.0555","PERIAPSIS":"545.891","SEMIMAJOR_AXIS":"6925.376","TLE_LINE1":"1 48604U 21041BD  22101.32468554 -.00000116  00000-0  11124-4 0  9995","SITE":"AFETR","REF_FRAME":"TEME","CENTER_NAME":"EARTH","GP_ID":"200984407","MEAN_MOTION_DOT":"-0.00000116","CLASSIFICATION_TYPE":"U","LAUNCH_DATE":"2021-05-15","REV_AT_EPOCH":"5104","OBJECT_NAME":"STARLINK-2757","RCS_SIZE":"LARGE","OBJECT_ID":"2021-041BD","ARG_OF_PERICENTER":"61.1578","PERIOD":"95.593","MEAN_ELEMENT_THEORY":"SGP4","MEAN_MOTION":"15.06390999","APOAPSIS":"548.591","ECCENTRICITY":"0.00019490","TLE_LINE2":"2 48604  53.0555  73.8064 0001949  61.1578 298.9606 15.06390999 51047","EPOCH":"2022-04-11T07:47:32.830656"},{"FILE":"3397378","DECAY_DATE":null,"COUNTRY_CODE":"US","MEAN_ANOMALY":"286.1019","INCLINATION":"53.0585","PERIAPSIS":"546.040","SEMIMAJOR_AXIS":"6925.336","TLE_LINE1":"1 48638U 21044A   22101.54167008 -.00000491  00000-0 -14034-4 0  9999","SITE":"AFETR","REF_FRAME":"TEME","GP_ID":"200985413","CENTER_NAME":"EARTH","RA_OF_ASC_NODE":"47.8320","MEAN_MOTION_DDOT":"0.0000000000000","NORAD_CAT_ID":"48638","ELEMENT_SET_NO":"999","TIME_SYSTEM":"UTC","BSTAR":"-0.00001403400000","OBJECT_TYPE":"PAYLOAD","EPHEMERIS_TYPE":"0","OBJECT_ID":"2021-044A","ARG_OF_PERICENTER":"74.0155","MEAN_ELEMENT_THEORY":"SGP4","PERIOD":"95.592","MEAN_MOTION":"15.06404026","APOAPSIS":"548.363","ECCENTRICITY":"0.00016770","TLE_LINE2":"2 48638  53.0585  47.8320 0001677  74.0155 286.1019 15.06404026 48528","EPOCH":"2022-04-11T13:00:00.294912","MEAN_MOTION_DOT":"-0.00000491","CLASSIFICATION_TYPE":"U","LAUNCH_DATE":"2021-05-26","REV_AT_EPOCH":"4852","OBJECT_NAME":"STARLINK-2758","RCS_SIZE":"LARGE"},{"LAUNCH_DATE":"2021-05-26","RCS_SIZE":"LARGE","OBJECT_NAME":"STARLINK-2739","REV_AT_EPOCH":"4846","CLASSIFICATION_TYPE":"U","MEAN_MOTION_DOT":"0.00000403","EPOCH":"2022-04-11T03:05:32.215776","MEAN_MOTION":"15.06386217","PERIOD":"95.593","MEAN_ELEMENT_THEORY":"SGP4","OBJECT_ID":"2021-044B","ARG_OF_PERICENTER":"60.1138","TLE_LINE2":"2 48639  53.0582  49.6841 0001455  60.1138 299.9996 15.06386217 48465","ECCENTRICITY":"0.00014550","APOAPSIS":"548.263","TIME_SYSTEM":"UTC","ELEMENT_SET_NO":"999","MEAN_MOTION_DDOT":"0.0000000000000","NORAD_CAT_ID":"48639","EPHEMERIS_TYPE":"0","OBJECT_TYPE":"PAYLOAD","BSTAR":"0.00004598000000","RA_OF_ASC_NODE":"49.6841","REF_FRAME":"TEME","SITE":"AFETR","TLE_LINE1":"1 48639U 21044B   22101.12884509  .00000403  00000-0  45980-4 0  9991","GP_ID":"200985145","CENTER_NAME":"EARTH","INCLINATION":"53.0582","MEAN_ANOMALY":"299.9996","COUNTRY_CODE":"US","DECAY_DATE":null,"FILE":"3397378","PERIAPSIS":"546.248","SEMIMAJOR_AXIS":"6925.391"},{"RA_OF_ASC_NODE":"47.7449","EPHEMERIS_TYPE":"0","OBJECT_TYPE":"PAYLOAD","BSTAR":"0.00005477200000","ELEMENT_SET_NO":"999","TIME_SYSTEM":"UTC","MEAN_MOTION_DDOT":"0.0000000000000","NORAD_CAT_ID":"48640","SEMIMAJOR_AXIS":"6925.374","PERIAPSIS":"546.182","INCLINATION":"53.0562","MEAN_ANOMALY":"298.2288","COUNTRY_CODE":"US","DECAY_DATE":null,"FILE":"3397378","CENTER_NAME":"EARTH","GP_ID":"200983912","REF_FRAME":"TEME","SITE":"AFETR","TLE_LINE1":"1 48640U 21044C   22101.56010382  .00000534  00000-0  54772-4 0  9995","CLASSIFICATION_TYPE":"U","MEAN_MOTION_DOT":"0.00000534","RCS_SIZE":"LARGE","OBJECT_NAME":"STARLINK-2736","REV_AT_EPOCH":"4852","LAUNCH_DATE":"2021-05-26","TLE_LINE2":"2 48640  53.0562  47.7449 0001525  61.8855 298.2288 15.06391839 48529","ECCENTRICITY":"0.00015250","APOAPSIS":"548.295","MEAN_MOTION":"15.06391839","PERIOD":"95.593","MEAN_ELEMENT_THEORY":"SGP4","ARG_OF_PERICENTER":"61.8855","OBJECT_ID":"2021-044C","EPOCH":"2022-04-11T13:26:32.970048"},{"ECCENTRICITY":"0.00016680","APOAPSIS":"548.385","TLE_LINE2":"2 48641  53.0575  52.5746 0001668  57.0691 303.0458 15.06394727 48467","MEAN_ELEMENT_THEORY":"SGP4","PERIOD":"95.592","ARG_OF_PERICENTER":"57.0691","OBJECT_ID":"2021-044D","MEAN_MOTION":"15.06394727","EPOCH":"2022-04-11T14:22:57.875808","CLASSIFICATION_TYPE":"U","MEAN_MOTION_DOT":"0.00000579","REV_AT_EPOCH":"4846","RCS_SIZE":"LARGE","OBJECT_NAME":"STARLINK-2754","LAUNCH_DATE":"2021-05-26","PERIAPSIS":"546.075","SEMIMAJOR_AXIS":"6925.365","DECAY_DATE":null,"FILE":"3397723","MEAN_ANOMALY":"303.0458","INCLINATION":"53.0575","COUNTRY_CODE":"US","CENTER_NAME":"EARTH","GP_ID":"201016228","TLE_LINE1":"1 48641U 21044D   22101.59928097  .00000579  00000-0  57784-4 0  9995","REF_FRAME":"TEME","SITE":"AFETR","RA_OF_ASC_NODE":"52.5746","BSTAR":"0.00005778400000","EPHEMERIS_TYPE":"0","OBJECT_TYPE":"PAYLOAD","TIME_SYSTEM":"UTC","ELEMENT_SET_NO":"999","MEAN_MOTION_DDOT":"0.0000000000000","NORAD_CAT_ID":"48641"}];
